43072,IRIDIUM 116,2017,100.4,860.0,+,86.4,Active,1,LEO,USA,USA,Commercial/Government,Communications,Falcon,1 43072U 17083C   25083.90572711  .00000863  00000+0  30116-3 0  9995,2 43072  86.4004 149.8334 0001972 101.1747 258.9670 14.34220634379771,14.34220634,0.0001972,LEO
43073,IRIDIUM 130,2017,100.4,860.0,+,86.4,Active,1,LEO,USA,USA,Commercial/Government,Communications,Falcon,1 43073U 17083D   25084.57169792  .00000630  00000+0  21802-3 0  9995,2 43073  86.4011 149.7867 0001894  94.5928 265.5484 14.34221649379818,14.34221649,0.0001894,LEO
43074,IRIDIUM 151,2017,100.4,860.0,+,86.4,Active,1,LEO,USA,USA,Commercial/Government,Communications,Falcon,1 43074U 17083E   25084.12773002  .00000856  00000+0  29863-3 0  9997,2 43074  86.4005 149.7884 0002112  99.7949 260.3486 14.34219230379778,14.3421923,0.0002112,LEO
43075,IRIDIUM 134,2017,100.4,860.0,+,86.4,Active,1,LEO,USA,USA,Commercial/Government,Communications,Falcon,1 43075U 17083F   25084.16577373  .00000259  00000+0  85606-4 0  9990,2 43075  86.4005 149.7743 0001976  91.6808 268.4614 14.34214640379744,14.3421464,0.0001976,LEO
43076,IRIDIUM 137,2017,100.4,860.0,+,86.4,Active,1,LEO,USA,USA,Commercial/Government,Communications,Falcon,1 43076U 17083G   25083.89938666  .00000469  00000+0  16053-3 0  9998,2 43076  86.4012 149.9691 0001993 112.3619 247.7788 14.34218664379772,14.34218664,0.0001993,LEO
43077,IRIDIUM 141,2017,100.4,860.0,+,86.4,Active,1,LEO,USA,USA,Commercial/Government,Communications,Falcon,1 43077U 17083H   25083.89304490  .00000416  00000+0  14152-3 0  9991,2 43077  86.4005 149.8282 0002469  91.1709 268.9770 14.34219386379771,14.34219386,0.0002469,LEO
43078,IRIDIUM 153,2017,100.4,860.0,+,86.39,Active,1,LEO,USA,USA,Commercial/Government,Communications,Falcon,1 43078U 17083J   25084.47314055  .00000544  00000+0  18725-3 0  9997,2 43078  86.3936 118.0832 0002619  82.5237 277.6256 14.34215422380966,14.34215422,0.0002619,LEO
43079,IRIDIUM 131,2017,100.4,860.0,+,86.4,Active,1,LEO,USA,USA,Commercial/Government,Communications,Falcon,1 43079U 17083K   25083.88035954  .00000412  00000+0  14010-3 0  9997,2 43079  86.4008 149.9892 0002505  98.4320 261.7160 14.34220009379705,14.34220009,0.0002505,LEO
